{
  "type": "FeatureCollection",
  "features": [
    {
      "type": "Feature",
      "properties": {
        "name": "Indian Coastline (Simplified)",
        "source": "Demo Data"
      },
      "geometry": {
        "type": "LineString",
        "coordinates": [
          [68.5, 23.5],
          [69.0, 22.5],
          [70.0, 21.0],
          [72.5, 20.0],
          [73.0, 19.0],
          [73.5, 17.0],
          [74.0, 15.0],
          [75.0, 13.0],
          [76.0, 10.0],
          [77.0, 8.0],
          [78.0, 8.5],
          [79.0, 9.5],
          [80.0, 13.0],
          [81.0, 16.0],
          [83.0, 17.5],
          [85.0, 19.5],
          [87.0, 21.5],
          [88.0, 22.0]
        ]
      }
    }
  ]
}
