{
  "type": "FeatureCollection",
  "features": [
    {
      "type": "Feature",
      "properties": {
        "name": "Naval Base Karwar Restricted Zone",
        "type": "naval",
        "restriction_level": "prohibited",
        "reason": "Military installation",
        "source": "Indian Navy"
      },
      "geometry": {
        "type": "Polygon",
        "coordinates": [
          [
            [74.12, 14.78],
            [74.08, 14.76],
            [74.06, 14.73],
            [74.05, 14.70],
            [74.09, 14.71],
            [74.11, 14.74],
            [74.12, 14.78]
          ]
        ]
      }
    },
    {
      "type": "Feature",
      "properties": {
        "name": "Mumbai Port Approach Channel",
        "type": "port",
        "restriction_level": "caution",
        "reason": "High traffic commercial shipping lane",
        "source": "Mumbai Port Trust"
      },
      "geometry": {
        "type": "Polygon",
        "coordinates": [
          [
            [72.82, 18.91],
            [72.75, 18.86],
            [72.65, 18.81],
            [72.64, 18.79],
            [72.75, 18.84],
            [72.83, 18.89],
            [72.82, 18.91]
          ]
        ]
      }
    },
    {
      "type": "Feature",
      "properties": {
        "name": "Gulf of Mannar Marine National Park",
        "type": "ecological",
        "restriction_level": "warning",
        "reason": "Protected marine ecosystem",
        "source": "Ministry of Environment"
      },
      "geometry": {
        "type": "Polygon",
        "coordinates": [
          [
            [79.20, 9.20],
            [79.30, 9.15],
            [79.25, 9.05],
            [79.10, 8.90],
            [78.90, 9.00],
            [79.05, 9.12],
            [79.20, 9.20]
          ]
        ]
      }
    },
    {
      "type": "Feature",
      "properties": {
        "name": "Sundarbans Reserved Forest Waterways",
        "type": "ecological",
        "restriction_level": "warning",
        "reason": "Tiger reserve and sensitive ecosystem",
        "source": "Forest Department"
      },
      "geometry": {
        "type": "Polygon",
        "coordinates": [
          [
            [88.50, 21.80],
            [88.70, 21.85],
            [88.90, 21.75],
            [89.00, 21.60],
            [88.80, 21.45],
            [88.60, 21.50],
            [88.50, 21.80]
          ]
        ]
      }
    },
    {
      "type": "Feature",
      "properties": {
        "name": "India-Sri Lanka IMBL (Palk Strait)",
        "type": "international_boundary",
        "restriction_level": "prohibited",
        "reason": "International Maritime Boundary Line buffer zone. Crossing prohibited.",
        "source": "Coast Guard"
      },
      "geometry": {
        "type": "Polygon",
        "coordinates": [
          [
            [79.50, 10.02],
            [79.70, 9.82],
            [79.90, 9.52],
            [79.88, 9.48],
            [79.68, 9.78],
            [79.48, 9.98],
            [79.50, 10.02]
          ]
        ]
      }
    }
  ]
}

